[
    {
        "Altitude(m)": 607911.0075858568,
        "Argument of Periapsis(deg)": 0.0,
        "Eccentricity": 0.0,
        "Inclination(deg)": 60.0,
        "Latitude(deg)": -14.292936040919537,
        "Longitude(deg)": -171.55737466783825,
        "Mean Anomaly(deg)": 196.36359999999996,
        "RAAN(deg)": 100.0,
        "Satellite Name": "Test1 452",
        "Satellite Number": 452,
        "Semi-Major Axis(m)": 6980739.136638005,
        "Time(s)": 0
    },
    {
        "Altitude(m)": 608060.2412120121,
        "Argument of Periapsis(deg)": 0.00010418945913296404,
        "Eccentricity": 0.0,
        "Inclination(deg)": 60.0,
        "Latitude(deg)": -14.826597887145951,
        "Longitude(deg)": -171.268766104168,
        "Mean Anomaly(deg)": 196.9837061454618,
        "RAAN(deg)": 99.99957995086025,
        "Satellite Name": "Test1 452",
        "Satellite Number": 452,
        "Semi-Major Axis(m)": 6980739.136638005,
        "Time(s)": 10
    }
]